[{"OBJECT_NAME":"STARLINK-34316","OBJECT_ID":"2025-142M","EPOCH":"2026-03-09T23:14:56.718528","MEAN_MOTION":14.98336567,"ECCENTRICITY":0.00026396,"INCLINATION":70.0008,"RA_OF_ASC_NODE":313.7099,"ARG_OF_PERICENTER":268.2564,"MEAN_ANOMALY":91.8293,"EPHEMERIS_TYPE":0,"CLASSIFICATION_TYPE":"U","NORAD_CAT_ID":64707,"ELEMENT_SET_NO":999,"REV_AT_EPOCH":3969,"BSTAR":0.00012875823,"MEAN_MOTION_DOT":1.444e-5,"MEAN_MOTION_DDOT":0},{"OBJECT_NAME":"CZ-6A DEB","OBJECT_ID":"2024-140KN","EPOCH":"2026-03-09T13:37:52.587264","MEAN_MOTION":14.78327521,"ECCENTRICITY":0.01349,"INCLINATION":88.7947,"RA_OF_ASC_NODE":265.1899,"ARG_OF_PERICENTER":188.1767,"MEAN_ANOMALY":171.726,"EPHEMERIS_TYPE":0,"CLASSIFICATION_TYPE":"U","NORAD_CAT_ID":60883,"ELEMENT_SET_NO":999,"REV_AT_EPOCH":8325,"BSTAR":0.00065033,"MEAN_MOTION_DOT":5.532e-5,"MEAN_MOTION_DDOT":0}]
